[
    {
        "Altitude(m)": 610399.5760155445,
        "Argument of Periapsis(deg)": 0.0,
        "Eccentricity": 0.0,
        "Inclination(deg)": 60.0,
        "Latitude(deg)": 52.111465096031196,
        "Longitude(deg)": 82.58425940636657,
        "Mean Anomaly(deg)": 65.45449999999998,
        "RAAN(deg)": 135.0,
        "Satellite Name": "Test1 598",
        "Satellite Number": 598,
        "Semi-Major Axis(m)": 6980739.136638005,
        "Time(s)": 0
    },
    {
        "Altitude(m)": 610481.7271233491,
        "Argument of Periapsis(deg)": 0.00010418945913296404,
        "Eccentricity": 0.0,
        "Inclination(deg)": 60.0,
        "Latitude(deg)": 52.47106782323932,
        "Longitude(deg)": 83.36639732693712,
        "Mean Anomaly(deg)": 66.07460614546183,
        "RAAN(deg)": 134.99957995086024,
        "Satellite Name": "Test1 598",
        "Satellite Number": 598,
        "Semi-Major Axis(m)": 6980739.136638005,
        "Time(s)": 10
    },
    {
        "Altitude(m)": 610562.4170344061,
        "Argument of Periapsis(deg)": 0.0002083789182659281,
        "Eccentricity": 0.0,
        "Inclination(deg)": 60.0,
        "Latitude(deg)": 52.82482313056245,
        "Longitude(deg)": 84.16194836420443,
        "Mean Anomaly(deg)": 66.69471229092366,
        "RAAN(deg)": 134.99915990172053,
        "Satellite Name": "Test1 598",
        "Satellite Number": 598,
        "Semi-Major Axis(m)": 6980739.136638005,
        "Time(s)": 20
    },
    {
        "Altitude(m)": 610641.5982827906,
        "Argument of Periapsis(deg)": 0.00031256837739889213,
        "Eccentricity": 0.0,
        "Inclination(deg)": 60.0,
        "Latitude(deg)": 53.17256148970744,
        "Longitude(deg)": 84.97107703161568,
        "Mean Anomaly(deg)": 67.3148184363855,
        "RAAN(deg)": 134.99873985258077,
        "Satellite Name": "Test1 598",
        "Satellite Number": 598,
        "Semi-Major Axis(m)": 6980739.136638005,
        "Time(s)": 30
    },
    {
        "Altitude(m)": 610719.2243590388,
        "Argument of Periapsis(deg)": 0.0004167578365318562,
        "Eccentricity": 0.0,
        "Inclination(deg)": 60.0,
        "Latitude(deg)": 53.51410989641518,
        "Longitude(deg)": 85.79393622997854,
        "Mean Anomaly(deg)": 67.93492458184731,
        "RAAN(deg)": 134.99831980344103,
        "Satellite Name": "Test1 598",
        "Satellite Number": 598,
        "Semi-Major Axis(m)": 6980739.136638005,
        "Time(s)": 40
    },
    {
        "Altitude(m)": 610795.2497324678,
        "Argument of Periapsis(deg)": 0.0005209472956648203,
        "Eccentricity": 0.0,
        "Inclination(deg)": 60.0,
        "Latitude(deg)": 53.849291992425606,
        "Longitude(deg)": 86.6306648332424,
        "Mean Anomaly(deg)": 68.55503072730914,
        "RAAN(deg)": 134.99789975430127,
        "Satellite Name": "Test1 598",
        "Satellite Number": 598,
        "Semi-Major Axis(m)": 6980739.136638005,
        "Time(s)": 50
    },
    {
        "Altitude(m)": 610869.6298730203,
        "Argument of Periapsis(deg)": 0.0006251367547977843,
        "Eccentricity": 0.0,
        "Inclination(deg)": 60.0,
        "Latitude(deg)": 54.177928211769135,
        "Longitude(deg)": 87.4813867215117,
        "Mean Anomaly(deg)": 69.17513687277096,
        "RAAN(deg)": 134.99747970516157,
        "Satellite Name": "Test1 598",
        "Satellite Number": 598,
        "Semi-Major Axis(m)": 6980739.136638005,
        "Time(s)": 60
    },
    {
        "Altitude(m)": 610942.3212725817,
        "Argument of Periapsis(deg)": 0.0007293262139307483,
        "Eccentricity": 0.0,
        "Inclination(deg)": 60.0,
        "Latitude(deg)": 54.49983595304702,
        "Longitude(deg)": 88.34620975271703,
        "Mean Anomaly(deg)": 69.79524301823281,
        "RAAN(deg)": 134.9970596560218,
        "Satellite Name": "Test1 598",
        "Satellite Number": 598,
        "Semi-Major Axis(m)": 6980739.136638005,
        "Time(s)": 70
    },
    {
        "Altitude(m)": 611013.2814657984,
        "Argument of Periapsis(deg)": 0.0008335156730637124,
        "Eccentricity": 0.0,
        "Inclination(deg)": 60.0,
        "Latitude(deg)": 54.814829779325834,
        "Longitude(deg)": 89.22522316568553,
        "Mean Anomaly(deg)": 70.41534916369464,
        "RAAN(deg)": 134.99663960688207,
        "Satellite Name": "Test1 598",
        "Satellite Number": 598,
        "Semi-Major Axis(m)": 6980739.136638005,
        "Time(s)": 80
    },
    {
        "Altitude(m)": 611082.4690503872,
        "Argument of Periapsis(deg)": 0.0009377051321966765,
        "Eccentricity": 0.0,
        "Inclination(deg)": 60.0,
        "Latitude(deg)": 55.12272164720476,
        "Longitude(deg)": 90.11849644740887,
        "Mean Anomaly(deg)": 71.03545530915646,
        "RAAN(deg)": 134.9962195577423,
        "Satellite Name": "Test1 598",
        "Satellite Number": 598,
        "Semi-Major Axis(m)": 6980739.136638005,
        "Time(s)": 90
    },
    {
        "Altitude(m)": 611149.8437069153,
        "Argument of Periapsis(deg)": 0.0010418945913296407,
        "Eccentricity": 0.0,
        "Inclination(deg)": 60.0,
        "Latitude(deg)": 55.42332116651677,
        "Longitude(deg)": 91.02607816022237,
        "Mean Anomaly(deg)": 71.65556145461828,
        "RAAN(deg)": 134.9957995086026,
        "Satellite Name": "Test1 598",
        "Satellite Number": 598,
        "Semi-Major Axis(m)": 6980739.136638005,
        "Time(s)": 100
    },
    {
        "Altitude(m)": 611215.3662180412,
        "Argument of Periapsis(deg)": 0.0011460840504626045,
        "Eccentricity": 0.0,
        "Inclination(deg)": 60.0,
        "Latitude(deg)": 55.71643589199091,
        "Longitude(deg)": 91.94799322624243,
        "Mean Anomaly(deg)": 72.27566760008014,
        "RAAN(deg)": 134.9953794594628,
        "Satellite Name": "Test1 598",
        "Satellite Number": 598,
        "Semi-Major Axis(m)": 6980739.136638005,
        "Time(s)": 110
    },
    {
        "Altitude(m)": 611278.9984872147,
        "Argument of Periapsis(deg)": 0.0012502735095955685,
        "Eccentricity": 0.0,
        "Inclination(deg)": 60.0,
        "Latitude(deg)": 56.001871648035525,
        "Longitude(deg)": 92.88424170676615,
        "Mean Anomaly(deg)": 72.89577374554196,
        "RAAN(deg)": 134.99495941032308,
        "Satellite Name": "Test1 598",
        "Satellite Number": 598,
        "Semi-Major Axis(m)": 6980739.136638005,
        "Time(s)": 120
    },
    {
        "Altitude(m)": 611340.7035568312,
        "Argument of Periapsis(deg)": 0.0013544629687285324,
        "Eccentricity": 0.0,
        "Inclination(deg)": 60.0,
        "Latitude(deg)": 56.27943288758941,
        "Longitude(deg)": 93.83479757747638,
        "Mean Anomaly(deg)": 73.51587989100379,
        "RAAN(deg)": 134.99453936118334,
        "Satellite Name": "Test1 598",
        "Satellite Number": 598,
        "Semi-Major Axis(m)": 6980739.136638005,
        "Time(s)": 130
    },
    {
        "Altitude(m)": 611400.4456258494,
        "Argument of Periapsis(deg)": 0.0014586524278614966,
        "Eccentricity": 0.0,
        "Inclination(deg)": 60.0,
        "Latitude(deg)": 56.54892308573429,
        "Longitude(deg)": 94.79960600209976,
        "Mean Anomaly(deg)": 74.13598603646562,
        "RAAN(deg)": 134.9941193120436,
        "Satellite Name": "Test1 598",
        "Satellite Number": 598,
        "Semi-Major Axis(m)": 6980739.136638005,
        "Time(s)": 140
    },
    {
        "Altitude(m)": 611458.1900667797,
        "Argument of Periapsis(deg)": 0.0015628418869944607,
        "Eccentricity": 0.0,
        "Inclination(deg)": 60.0,
        "Latitude(deg)": 56.810145168465304,
        "Longitude(deg)": 95.77858214758862,
        "Mean Anomaly(deg)": 74.75609218192744,
        "RAAN(deg)": 134.99369926290385,
        "Satellite Name": "Test1 598",
        "Satellite Number": 598,
        "Semi-Major Axis(m)": 6980739.136638005,
        "Time(s)": 150
    },
    {
        "Altitude(m)": 611513.9034421924,
        "Argument of Periapsis(deg)": 0.0016670313461274247,
        "Eccentricity": 0.0,
        "Inclination(deg)": 60.0,
        "Latitude(deg)": 57.06290197666916,
        "Longitude(deg)": 96.77161004700596,
        "Mean Anomaly(deg)": 75.37619832738928,
        "RAAN(deg)": 134.9932792137641,
        "Satellite Name": "Test1 598",
        "Satellite Number": 598,
        "Semi-Major Axis(m)": 6980739.136638005,
        "Time(s)": 160
    },
    {
        "Altitude(m)": 611567.5535205796,
        "Argument of Periapsis(deg)": 0.0017712208052603888,
        "Eccentricity": 0.0,
        "Inclination(deg)": 60.0,
        "Latitude(deg)": 57.306996764971785,
        "Longitude(deg)": 97.77854001793041,
        "Mean Anomaly(deg)": 75.99630447285112,
        "RAAN(deg)": 134.99285916462438,
        "Satellite Name": "Test1 598",
        "Satellite Number": 598,
        "Semi-Major Axis(m)": 6980739.136638005,
        "Time(s)": 170
    },
    {
        "Altitude(m)": 611619.1092916692,
        "Argument of Periapsis(deg)": 0.001875410264393353,
        "Eccentricity": 0.0,
        "Inclination(deg)": 60.0,
        "Latitude(deg)": 57.54223373468187,
        "Longitude(deg)": 98.79918768431536,
        "Mean Anomaly(deg)": 76.61641061831295,
        "RAAN(deg)": 134.99243911548464,
        "Satellite Name": "Test1 598",
        "Satellite Number": 598,
        "Semi-Major Axis(m)": 6980739.136638005,
        "Time(s)": 180
    },
    {
        "Altitude(m)": 611668.5409811172,
        "Argument of Periapsis(deg)": 0.0019795997235263173,
        "Eccentricity": 0.0,
        "Inclination(deg)": 60.0,
        "Latitude(deg)": 57.76841859958089,
        "Longitude(deg)": 99.83333311237173,
        "Mean Anomaly(deg)": 77.23651676377476,
        "RAAN(deg)": 134.99201906634488,
        "Satellite Name": "Test1 598",
        "Satellite Number": 598,
        "Semi-Major Axis(m)": 6980739.136638005,
        "Time(s)": 190
    }
]